[{"OBJECT_NAME":"STARLINK-32845","OBJECT_ID":"2025-018K","EPOCH":"2026-03-09T21:35:15.269856","MEAN_MOTION":15.30210645,"ECCENTRICITY":0.00017732,"INCLINATION":53.1586,"RA_OF_ASC_NODE":308.4026,"ARG_OF_PERICENTER":148.7409,"MEAN_ANOMALY":211.3697,"EPHEMERIS_TYPE":0,"CLASSIFICATION_TYPE":"U","NORAD_CAT_ID":62815,"ELEMENT_SET_NO":999,"REV_AT_EPOCH":6320,"BSTAR":0.00074431831,"MEAN_MOTION_DOT":0.00021757,"MEAN_MOTION_DDOT":0},{"OBJECT_NAME":"OBJECT L","OBJECT_ID":"2024-024L","EPOCH":"2026-03-09T22:36:05.522976","MEAN_MOTION":15.29373491,"ECCENTRICITY":0.00073185,"INCLINATION":97.3169,"RA_OF_ASC_NODE":137.7038,"ARG_OF_PERICENTER":167.6369,"MEAN_ANOMALY":192.5052,"EPHEMERIS_TYPE":0,"CLASSIFICATION_TYPE":"U","NORAD_CAT_ID":58927,"ELEMENT_SET_NO":999,"REV_AT_EPOCH":9318,"BSTAR":0.00043092344,"MEAN_MOTION_DOT":0.00012217,"MEAN_MOTION_DDOT":0}]
